[{"OBJECT_NAME":"FLOCK 4G-18","OBJECT_ID":"2025-009BZ","EPOCH":"2026-03-09T04:35:14.656704","MEAN_MOTION":15.27241676,"ECCENTRICITY":0.00041001,"INCLINATION":97.4054,"RA_OF_ASC_NODE":150.5008,"ARG_OF_PERICENTER":335.7331,"MEAN_ANOMALY":24.3715,"EPHEMERIS_TYPE":0,"CLASSIFICATION_TYPE":"U","NORAD_CAT_ID":62680,"ELEMENT_SET_NO":999,"REV_AT_EPOCH":12126,"BSTAR":0.0004431856,"MEAN_MOTION_DOT":0.00011766,"MEAN_MOTION_DDOT":0},{"OBJECT_NAME":"STARLINK-33878","OBJECT_ID":"2025-093AC","EPOCH":"2026-03-09T09:13:39.594720","MEAN_MOTION":15.27618604,"ECCENTRICITY":0.00020476,"INCLINATION":43.001,"RA_OF_ASC_NODE":79.7369,"ARG_OF_PERICENTER":248.751,"MEAN_ANOMALY":111.3123,"EPHEMERIS_TYPE":0,"CLASSIFICATION_TYPE":"U","NORAD_CAT_ID":63862,"ELEMENT_SET_NO":999,"REV_AT_EPOCH":4791,"BSTAR":0.001294161,"MEAN_MOTION_DOT":0.00035565,"MEAN_MOTION_DDOT":0}]
